start=new Date('2022-06-17T00:00:00.000Z').valueOf();
sats=[{"MEAN_MOTION":"15.06389686","COUNTRY_CODE":"US","APOAPSIS":"548.265","FILE":"3496919","BSTAR":"-0.00009402000000","EPOCH":"2022-06-15T20:30:06.042240","PERIOD":"95.593","REF_FRAME":"TEME","OBJECT_TYPE":"PAYLOAD","OBJECT_ID":"2021-009Z","PERIAPSIS":"546.226","GP_ID":"206214148","ARG_OF_PERICENTER":"64.8387","MEAN_ANOMALY":"295.2755","MEAN_ELEMENT_THEORY":"SGP4","EPHEMERIS_TYPE":"0","NORAD_CAT_ID":"47571","TLE_LINE2":"2 47571  53.0560   9.6293 0001472  64.8387 295.2755 15.06389686 76127","ECCENTRICITY":"0.00014720","MEAN_MOTION_DDOT":"0.0000000000000","RCS_SIZE":"LARGE","SITE":"AFETR","RA_OF_ASC_NODE":"9.6293","INCLINATION":"53.0560","REV_AT_EPOCH":"7612","MEAN_MOTION_DOT":"-0.00001681","CLASSIFICATION_TYPE":"U","OBJECT_NAME":"STARLINK-1970","CENTER_NAME":"EARTH","SEMIMAJOR_AXIS":"6925.380","DECAY_DATE":null,"ELEMENT_SET_NO":"999","TLE_LINE1":"1 47571U 21009Z   22166.85423660 -.00001681  00000-0 -94020-4 0  9994","LAUNCH_DATE":"2021-02-04","TIME_SYSTEM":"UTC"},{"ECCENTRICITY":"0.00012920","MEAN_MOTION_DDOT":"0.0000000000000","TLE_LINE2":"2 47572  53.0545   9.1255 0001292  63.5553 296.5568 15.06394173 75543","MEAN_ANOMALY":"296.5568","ARG_OF_PERICENTER":"63.5553","MEAN_ELEMENT_THEORY":"SGP4","EPHEMERIS_TYPE":"0","NORAD_CAT_ID":"47572","REF_FRAME":"TEME","OBJECT_TYPE":"PAYLOAD","PERIAPSIS":"546.337","OBJECT_ID":"2021-009AA","GP_ID":"206288646","BSTAR":"0.00001962100000","EPOCH":"2022-06-15T23:14:37.713984","PERIOD":"95.593","COUNTRY_CODE":"US","FILE":"3497002","APOAPSIS":"548.126","MEAN_MOTION":"15.06394173","TLE_LINE1":"1 47572U 21009AA  22166.96849206  .00000011  00000-0  19621-4 0  9993","TIME_SYSTEM":"UTC","LAUNCH_DATE":"2021-02-04","DECAY_DATE":null,"ELEMENT_SET_NO":"999","CENTER_NAME":"EARTH","SEMIMAJOR_AXIS":"6925.366","CLASSIFICATION_TYPE":"U","OBJECT_NAME":"STARLINK-1971","REV_AT_EPOCH":"7554","MEAN_MOTION_DOT":"0.00000011","RA_OF_ASC_NODE":"9.1255","INCLINATION":"53.0545","SITE":"AFETR","RCS_SIZE":"LARGE"},{"ELEMENT_SET_NO":"999","DECAY_DATE":null,"TLE_LINE1":"1 47573U 21009AB  22167.01271823  .00000476  00000-0  50825-4 0  9991","LAUNCH_DATE":"2021-02-04","TIME_SYSTEM":"UTC","CLASSIFICATION_TYPE":"U","OBJECT_NAME":"STARLINK-1975","CENTER_NAME":"EARTH","SEMIMAJOR_AXIS":"6925.316","RA_OF_ASC_NODE":"8.9284","INCLINATION":"53.0539","REV_AT_EPOCH":"7554","MEAN_MOTION_DOT":"0.00000476","RCS_SIZE":"LARGE","SITE":"AFETR","TLE_LINE2":"2 47573  53.0539   8.9284 0001726  61.3832 298.7331 15.06410661 75547","ECCENTRICITY":"0.00017260","MEAN_MOTION_DDOT":"0.0000000000000","OBJECT_TYPE":"PAYLOAD","REF_FRAME":"TEME","GP_ID":"206288393","OBJECT_ID":"2021-009AB","PERIAPSIS":"545.986","MEAN_ELEMENT_THEORY":"SGP4","MEAN_ANOMALY":"298.7331","ARG_OF_PERICENTER":"61.3832","NORAD_CAT_ID":"47573","EPHEMERIS_TYPE":"0","FILE":"3497002","APOAPSIS":"548.376","COUNTRY_CODE":"US","BSTAR":"0.00005082500000","PERIOD":"95.591","EPOCH":"2022-06-16T00:18:18.855072","MEAN_MOTION":"15.06410661"},{"TLE_LINE2":"2 47574  53.0558  39.7400 0001725  54.8702 305.2448 15.06398256 75697","MEAN_MOTION_DDOT":"0.0000000000000","ECCENTRICITY":"0.00017250","GP_ID":"206214161","PERIAPSIS":"546.024","OBJECT_ID":"2021-009AC","OBJECT_TYPE":"PAYLOAD","REF_FRAME":"TEME","NORAD_CAT_ID":"47574","EPHEMERIS_TYPE":"0","MEAN_ANOMALY":"305.2448","ARG_OF_PERICENTER":"54.8702","MEAN_ELEMENT_THEORY":"SGP4","APOAPSIS":"548.414","FILE":"3496936","COUNTRY_CODE":"US","PERIOD":"95.592","EPOCH":"2022-06-15T19:54:15.821856","BSTAR":"0.00005602700000","MEAN_MOTION":"15.06398256","ELEMENT_SET_NO":"999","DECAY_DATE":null,"LAUNCH_DATE":"2021-02-04","TIME_SYSTEM":"UTC","TLE_LINE1":"1 47574U 21009AC  22166.82934979  .00000553  00000-0  56027-4 0  9994","OBJECT_NAME":"STARLINK-1976","CLASSIFICATION_TYPE":"U","SEMIMAJOR_AXIS":"6925.354","CENTER_NAME":"EARTH","INCLINATION":"53.0558","RA_OF_ASC_NODE":"39.7400","REV_AT_EPOCH":"7569","MEAN_MOTION_DOT":"0.00000553","RCS_SIZE":"LARGE","SITE":"AFETR"},{"FILE":"3497002","APOAPSIS":"548.516","COUNTRY_CODE":"US","BSTAR":"-0.00003443700000","PERIOD":"95.593","EPOCH":"2022-06-16T00:24:57.961728","MEAN_MOTION":"15.06391061","TLE_LINE2":"2 47575  53.0558  38.9035 0001841  67.2575 292.8608 15.06391061 75122","ECCENTRICITY":"0.00018410","MEAN_MOTION_DDOT":"0.0000000000000","OBJECT_TYPE":"PAYLOAD","REF_FRAME":"TEME","GP_ID":"206287898","OBJECT_ID":"2021-009AD","PERIAPSIS":"545.966","ARG_OF_PERICENTER":"67.2575","MEAN_ANOMALY":"292.8608","MEAN_ELEMENT_THEORY":"SGP4","NORAD_CAT_ID":"47575","EPHEMERIS_TYPE":"0","RA_OF_ASC_NODE":"38.9035","INCLINATION":"53.0558","MEAN_MOTION_DOT":"-0.00000794","REV_AT_EPOCH":"7512","RCS_SIZE":"LARGE","SITE":"AFETR","ELEMENT_SET_NO":"999","DECAY_DATE":null,"TLE_LINE1":"1 47575U 21009AD  22167.01733752 -.00000794  00000-0 -34437-4 0  9993","LAUNCH_DATE":"2021-02-04","TIME_SYSTEM":"UTC","CLASSIFICATION_TYPE":"U","OBJECT_NAME":"STARLINK-1977","CENTER_NAME":"EARTH","SEMIMAJOR_AXIS":"6925.376"},{"ELEMENT_SET_NO":"999","DECAY_DATE":null,"TLE_LINE1":"1 47576U 21009AE  22166.78512616 -.00000957  00000-0 -45401-4 0  9995","LAUNCH_DATE":"2021-02-04","TIME_SYSTEM":"UTC","CLASSIFICATION_TYPE":"U","OBJECT_NAME":"STARLINK-1978","CENTER_NAME":"EARTH","SEMIMAJOR_AXIS":"6925.379","RA_OF_ASC_NODE":"359.9418","INCLINATION":"53.0569","MEAN_MOTION_DOT":"-0.00000957","REV_AT_EPOCH":"7565","RCS_SIZE":"LARGE","SITE":"AFETR","TLE_LINE2":"2 47576  53.0569 359.9418 0001552  57.4408 302.6730 15.06390145 75657","ECCENTRICITY":"0.00015520","MEAN_MOTION_DDOT":"0.0000000000000","OBJECT_TYPE":"PAYLOAD","REF_FRAME":"TEME","GP_ID":"206236393","OBJECT_ID":"2021-009AE","PERIAPSIS":"546.169","MEAN_ANOMALY":"302.6730","MEAN_ELEMENT_THEORY":"SGP4","ARG_OF_PERICENTER":"57.4408","NORAD_CAT_ID":"47576","EPHEMERIS_TYPE":"0","FILE":"3496999","APOAPSIS":"548.319","COUNTRY_CODE":"US","BSTAR":"-0.00004540100000","PERIOD":"95.593","EPOCH":"2022-06-15T18:50:34.900224","MEAN_MOTION":"15.06390145"},{"CENTER_NAME":"EARTH","SEMIMAJOR_AXIS":"6925.390","CLASSIFICATION_TYPE":"U","OBJECT_NAME":"STARLINK-1979","TLE_LINE1":"1 47577U 21009AF  22166.95882799 -.00000739  00000-0 -30705-4 0  9996","LAUNCH_DATE":"2021-02-04","TIME_SYSTEM":"UTC","ELEMENT_SET_NO":"999","DECAY_DATE":null,"SITE":"AFETR","RCS_SIZE":"LARGE","REV_AT_EPOCH":"7547","MEAN_MOTION_DOT":"-0.00000739","RA_OF_ASC_NODE":"14.1609","INCLINATION":"53.0563","ARG_OF_PERICENTER":"64.5730","MEAN_ANOMALY":"295.5423","MEAN_ELEMENT_THEORY":"SGP4","NORAD_CAT_ID":"47577","EPHEMERIS_TYPE":"0","OBJECT_TYPE":"PAYLOAD","REF_FRAME":"TEME","GP_ID":"206288894","OBJECT_ID":"2021-009AF","PERIAPSIS":"546.150","ECCENTRICITY":"0.00015960","MEAN_MOTION_DDOT":"0.0000000000000","TLE_LINE2":"2 47577  53.0563  14.1609 0001596  64.5730 295.5423 15.06386537 75478","MEAN_MOTION":"15.06386537","BSTAR":"-0.00003070500000","PERIOD":"95.593","EPOCH":"2022-06-15T23:00:42.738336","FILE":"3497002","APOAPSIS":"548.360","COUNTRY_CODE":"US"},{"RCS_SIZE":"LARGE","SITE":"AFETR","INCLINATION":"53.0564","RA_OF_ASC_NODE":"18.8897","MEAN_MOTION_DOT":"0.00000364","REV_AT_EPOCH":"7540","OBJECT_NAME":"STARLINK-1980","CLASSIFICATION_TYPE":"U","SEMIMAJOR_AXIS":"6925.372","CENTER_NAME":"EARTH","DECAY_DATE":null,"ELEMENT_SET_NO":"999","TIME_SYSTEM":"UTC","LAUNCH_DATE":"2021-02-04","TLE_LINE1":"1 47578U 21009AG  22167.01917511  .00000364  00000-0  43345-4 0  9992","MEAN_MOTION":"15.06392303","COUNTRY_CODE":"US","FILE":"3497002","APOAPSIS":"548.382","EPOCH":"2022-06-16T00:27:36.729504","PERIOD":"95.593","BSTAR":"0.00004334500000","PERIAPSIS":"546.092","OBJECT_ID":"2021-009AG","GP_ID":"206287650","REF_FRAME":"TEME","OBJECT_TYPE":"PAYLOAD","EPHEMERIS_TYPE":"0","NORAD_CAT_ID":"47578","ARG_OF_PERICENTER":"57.0584","MEAN_ANOMALY":"303.0564","MEAN_ELEMENT_THEORY":"SGP4","TLE_LINE2":"2 47578  53.0564  18.8897 0001653  57.0584 303.0564 15.06392303 75400","MEAN_MOTION_DDOT":"0.0000000000000","ECCENTRICITY":"0.00016530"},{"FILE":"3497002","APOAPSIS":"548.499","COUNTRY_CODE":"US","BSTAR":"-0.00006776800000","PERIOD":"95.593","EPOCH":"2022-06-16T00:02:24.940320","MEAN_MOTION":"15.06390278","TLE_LINE2":"2 47579  53.0553   8.9753 0001813  50.0334 310.0814 15.06390278 75544","ECCENTRICITY":"0.00018130","MEAN_MOTION_DDOT":"0.0000000000000","OBJECT_TYPE":"PAYLOAD","REF_FRAME":"TEME","GP_ID":"206287399","OBJECT_ID":"2021-009AH","PERIAPSIS":"545.988","ARG_OF_PERICENTER":"50.0334","MEAN_ANOMALY":"310.0814","MEAN_ELEMENT_THEORY":"SGP4","NORAD_CAT_ID":"47579","EPHEMERIS_TYPE":"0","RA_OF_ASC_NODE":"8.9753","INCLINATION":"53.0553","REV_AT_EPOCH":"7554","MEAN_MOTION_DOT":"-0.00001291","RCS_SIZE":"LARGE","SITE":"AFETR","ELEMENT_SET_NO":"999","DECAY_DATE":null,"TLE_LINE1":"1 47579U 21009AH  22167.00167755 -.00001291  00000-0 -67768-4 0  9996","LAUNCH_DATE":"2021-02-04","TIME_SYSTEM":"UTC","CLASSIFICATION_TYPE":"U","OBJECT_NAME":"STARLINK-1981","CENTER_NAME":"EARTH","SEMIMAJOR_AXIS":"6925.378"},{"RCS_SIZE":"LARGE","SITE":"AFETR","RA_OF_ASC_NODE":"19.1804","INCLINATION":"53.0571","MEAN_MOTION_DOT":"-0.00000740","REV_AT_EPOCH":"7539","CLASSIFICATION_TYPE":"U","OBJECT_NAME":"STARLINK-1982","CENTER_NAME":"EARTH","SEMIMAJOR_AXIS":"6925.368","DECAY_DATE":null,"ELEMENT_SET_NO":"999","TLE_LINE1":"1 47580U 21009AJ  22166.95651842 -.00000740  00000-0 -30800-4 0  9991","LAUNCH_DATE":"2021-02-04","TIME_SYSTEM":"UTC","MEAN_MOTION":"15.06393499","COUNTRY_CODE":"US","APOAPSIS":"548.360","FILE":"3497002","BSTAR":"-0.00003080000000","EPOCH":"2022-06-15T22:57:23.191488","PERIOD":"95.593","REF_FRAME":"TEME","OBJECT_TYPE":"PAYLOAD","PERIAPSIS":"546.107","OBJECT_ID":"2021-009AJ","GP_ID":"206288647","MEAN_ANOMALY":"297.8535","MEAN_ELEMENT_THEORY":"SGP4","ARG_OF_PERICENTER":"62.2619","EPHEMERIS_TYPE":"0","NORAD_CAT_ID":"47580","TLE_LINE2":"2 47580  53.0571  19.1804 0001627  62.2619 297.8535 15.06393499 75394","ECCENTRICITY":"0.00016270","MEAN_MOTION_DDOT":"0.0000000000000"}];
